{
  "norad_id": 53919,
  "name": "STARLINK-5023",
  "history": [
    {
      "epoch": "2026-03-28T16:19:14.171232Z",
      "apogee_km": 540.620416315287,
      "perigee_km": 538.8274451192628,
      "latitude_deg": -2.1231115540662233e-05,
      "longitude_deg": 157.83143821979615,
      "height_km": 540.5588833194349,
      "semi_major_axis_km": 6917.860930717275,
      "eccentricity": 0.00012959,
      "inclination_deg": 53.2164,
      "raan_deg": 228.7375,
      "arg_perigee_deg": 86.1146,
      "mean_anomaly_deg": 273.9994,
      "mean_motion_rev_day": 15.08846366
    },
    {
      "epoch": "2026-03-29T01:51:33.607584Z",
      "apogee_km": 540.6678995062493,
      "perigee_km": 538.837425901499,
      "latitude_deg": -1.2016306790418683e-06,
      "longitude_deg": 12.574626410880317,
      "height_km": 540.5618056221132,
      "semi_major_axis_km": 6917.889662703874,
      "eccentricity": 0.0001323,
      "inclination_deg": 53.2159,
      "raan_deg": 226.9534,
      "arg_perigee_deg": 84.5791,
      "mean_anomaly_deg": 275.5352,
      "mean_motion_rev_day": 15.08836966
    }
  ]
}